{
  "type": "FeatureCollection",
  "features": [
    {
      "type": "Feature",
      "properties": {
        "norad_id": 36828,
        "name": "BEIDOU-2 IGSO-1 (C06)",
        "group": "beidou",
        "lat": 34.387137574966566,
        "lon": -44.97428986347489,
        "alt_km": 35743.355399082706,
        "timestamp": "2025-12-19T06:59:44.173380+00:00",
        "meta_object_name": "BEIDOU-2 IGSO-1 (C06)",
        "meta_object_id": "2010-036A",
        "meta_epoch": "2025-12-14T21:38:21.623424",
        "meta_mean_motion": 1.00275796,
        "meta_eccentricity": 0.00512569,
        "meta_inclination": 54.2866,
        "meta_ra_of_asc_node": 164.6279,
        "meta_arg_of_pericenter": 215.8888,
        "meta_mean_anomaly": 135.7931,
        "meta_ephemeris_type": 0,
        "meta_classification_type": "U",
        "meta_norad_cat_id": 36828,
        "meta_element_set_no": 999,
        "meta_rev_at_epoch": 5624,
        "meta_bstar": 0,
        "meta_mean_motion_dot": -2.4e-07,
        "meta_mean_motion_ddot": 0,
        "tle_line1": "1 36828U 10036A   25348.90163916 -.00000024  00000+0  00000+0 0  9999",
        "tle_line2": "2 36828  54.2866 164.6279 0051256 215.8888 135.7931  1.00275796 56247"
      },
      "geometry": {
        "type": "Point",
        "coordinates": [
          -44.97428986347489,
          34.387137574966566
        ]
      }
    },
    {
      "type": "Feature",
      "properties": {
        "norad_id": 37210,
        "name": "BEIDOU-2 G4 (C04)",
        "group": "beidou",
        "lat": -3.1152238700021666,
        "lon": -6.70766718196775,
        "alt_km": 35787.02594280298,
        "timestamp": "2025-12-19T06:59:44.173404+00:00",
        "meta_object_name": "BEIDOU-2 G4 (C04)",
        "meta_object_id": "2010-057A",
        "meta_epoch": "2025-12-18T19:11:33.420768",
        "meta_mean_motion": 1.00272049,
        "meta_eccentricity": 0.00104469,
        "meta_inclination": 3.1991,
        "meta_ra_of_asc_node": 69.9164,
        "meta_arg_of_pericenter": 192.4779,
        "meta_mean_anomaly": 273.2335,
        "meta_ephemeris_type": 0,
        "meta_classification_type": "U",
        "meta_norad_cat_id": 37210,
        "meta_element_set_no": 999,
        "meta_rev_at_epoch": 5548,
        "meta_bstar": 0,
        "meta_mean_motion_dot": -8.9e-07,
        "meta_mean_motion_ddot": 0,
        "tle_line1": "1 37210U 10057A   25352.79969237 -.00000089  00000+0  00000+0 0  9991",
        "tle_line2": "2 37210   3.1991  69.9164 0010446 192.4779 273.2335  1.00272049 55489"
      },
      "geometry": {
        "type": "Point",
        "coordinates": [
          -6.70766718196775,
          -3.1152238700021666
        ]
      }
    },
    {
      "type": "Feature",
      "properties": {
        "norad_id": 37256,
        "name": "BEIDOU-2 IGSO-2 (C07)",
        "group": "beidou",
        "lat": 19.647081189913056,
        "lon": -67.14663772722898,
        "alt_km": 35981.51626100741,
        "timestamp": "2025-12-19T06:59:44.173434+00:00",
        "meta_object_name": "BEIDOU-2 IGSO-2 (C07)",
        "meta_object_id": "2010-068A",
        "meta_epoch": "2025-12-18T17:13:56.551296",
        "meta_mean_motion": 1.00284788,
        "meta_eccentricity": 0.00483763,
        "meta_inclination": 47.875,
        "meta_ra_of_asc_node": 274.0752,
        "meta_arg_of_pericenter": 216.347,
        "meta_mean_anomaly": 323.4971,
        "meta_ephemeris_type": 0,
        "meta_classification_type": "U",
        "meta_norad_cat_id": 37256,
        "meta_element_set_no": 999,
        "meta_rev_at_epoch": 5498,
        "meta_bstar": 0,
        "meta_mean_motion_dot": -2e-06,
        "meta_mean_motion_ddot": 0,
        "tle_line1": "1 37256U 10068A   25352.71801564 -.00000200  00000+0  00000+0 0  9998",
        "tle_line2": "2 37256  47.8750 274.0752 0048376 216.3470 323.4971  1.00284788 54987"
      },
      "geometry": {
        "type": "Point",
        "coordinates": [
          -67.14663772722898,
          19.647081189913056
        ]
      }
    },
    {
      "type": "Feature",
      "properties": {
        "norad_id": 37384,
        "name": "BEIDOU-2 IGSO-3 (C08)",
        "group": "beidou",
        "lat": -60.20591902198204,
        "lon": -70.85071804041513,
        "alt_km": 35744.08798299175,
        "timestamp": "2025-12-19T06:59:44.173449+00:00",
        "meta_object_name": "BEIDOU-2 IGSO-3 (C08)",
        "meta_object_id": "2011-013A",
        "meta_epoch": "2025-12-18T16:17:49.029216",
        "meta_mean_motion": 1.00269421,
        "meta_eccentricity": 0.00353461,
        "meta_inclination": 62.1512,
        "meta_ra_of_asc_node": 41.8596,
        "meta_arg_of_pericenter": 187.8899,
        "meta_mean_anomaly": 209.6604,
        "meta_ephemeris_type": 0,
        "meta_classification_type": "U",
        "meta_norad_cat_id": 37384,
        "meta_element_set_no": 999,
        "meta_rev_at_epoch": 5385,
        "meta_bstar": 0,
        "meta_mean_motion_dot": -1.73e-06,
        "meta_mean_motion_ddot": 0,
        "tle_line1": "1 37384U 11013A   25352.67903969 -.00000173  00000+0  00000+0 0  9997",
        "tle_line2": "2 37384  62.1512  41.8596 0035346 187.8899 209.6604  1.00269421 53851"
      },
      "geometry": {
        "type": "Point",
        "coordinates": [
          -70.85071804041513,
          -60.20591902198204
        ]
      }
    },
    {
      "type": "Feature",
      "properties": {
        "norad_id": 37763,
        "name": "BEIDOU-2 IGSO-4 (C09)",
        "group": "beidou",
        "lat": 45.52416611304278,
        "lon": -59.272013259120044,
        "alt_km": 36001.18740442652,
        "timestamp": "2025-12-19T06:59:44.173462+00:00",
        "meta_object_name": "BEIDOU-2 IGSO-4 (C09)",
        "meta_object_id": "2011-038A",
        "meta_epoch": "2025-12-17T23:29:21.564384",
        "meta_mean_motion": 1.00281312,
        "meta_eccentricity": 0.01493143,
        "meta_inclination": 54.5836,
        "meta_ra_of_asc_node": 167.2999,
        "meta_arg_of_pericenter": 230.2426,
        "meta_mean_anomaly": 136.1954,
        "meta_ephemeris_type": 0,
        "meta_classification_type": "U",
        "meta_norad_cat_id": 37763,
        "meta_element_set_no": 999,
        "meta_rev_at_epoch": 5283,
        "meta_bstar": 0,
        "meta_mean_motion_dot": 6.5e-07,
        "meta_mean_motion_ddot": 0,
        "tle_line1": "1 37763U 11038A   25351.97872181  .00000065  00000+0  00000+0 0  9997",
        "tle_line2": "2 37763  54.5836 167.2999 0149314 230.2426 136.1954  1.00281312 52838"
      },
      "geometry": {
        "type": "Point",
        "coordinates": [
          -59.272013259120044,
          45.52416611304278
        ]
      }
    },
    {
      "type": "Feature",
      "properties": {
        "norad_id": 37948,
        "name": "BEIDOU-2 IGSO-5 (C10)",
        "group": "beidou",
        "lat": 9.800082277218804,
        "lon": -77.3111496855579,
        "alt_km": 36183.79809634247,
        "timestamp": "2025-12-19T06:59:44.173475+00:00",
        "meta_object_name": "BEIDOU-2 IGSO-5 (C10)",
        "meta_object_id": "2011-073A",
        "meta_epoch": "2025-12-18T16:23:51.533376",
        "meta_mean_motion": 1.00290152,
        "meta_eccentricity": 0.01099443,
        "meta_inclination": 48.0091,
        "meta_ra_of_asc_node": 273.7856,
        "meta_arg_of_pericenter": 222.3449,
        "meta_mean_anomaly": 290.7013,
        "meta_ephemeris_type": 0,
        "meta_classification_type": "U",
        "meta_norad_cat_id": 37948,
        "meta_element_set_no": 999,
        "meta_rev_at_epoch": 5132,
        "meta_bstar": 0,
        "meta_mean_motion_dot": -1.7e-06,
        "meta_mean_motion_ddot": 0,
        "tle_line1": "1 37948U 11073A   25352.68323534 -.00000170  00000+0  00000+0 0  9991",
        "tle_line2": "2 37948  48.0091 273.7856 0109944 222.3449 290.7013  1.00290152 51329"
      },
      "geometry": {
        "type": "Point",
        "coordinates": [
          -77.3111496855579,
          9.800082277218804
        ]
      }
    },
    {
      "type": "Feature",
      "properties": {
        "norad_id": 38091,
        "name": "BEIDOU-2 G5 (C05)",
        "group": "beidou",
        "lat": -0.08332750932688036,
        "lon": -108.26001472749896,
        "alt_km": 35751.69440478085,
        "timestamp": "2025-12-19T06:59:44.173487+00:00",
        "meta_object_name": "BEIDOU-2 G5 (C05)",
        "meta_object_id": "2012-008A",
        "meta_epoch": "2025-12-18T20:25:21.161568",
        "meta_mean_motion": 1.00268356,
        "meta_eccentricity": 0.00129713,
        "meta_inclination": 3.1239,
        "meta_ra_of_asc_node": 70.6894,
        "meta_arg_of_pericenter": 231.2316,
        "meta_mean_anomaly": 150.9156,
        "meta_ephemeris_type": 0,
        "meta_classification_type": "U",
        "meta_norad_cat_id": 38091,
        "meta_element_set_no": 999,
        "meta_rev_at_epoch": 5056,
        "meta_bstar": 0,
        "meta_mean_motion_dot": 7.9e-07,
        "meta_mean_motion_ddot": 0,
        "tle_line1": "1 38091U 12008A   25352.85093937  .00000079  00000+0  00000+0 0  9997",
        "tle_line2": "2 38091   3.1239  70.6894 0012971 231.2316 150.9156  1.00268356 50567"
      },
      "geometry": {
        "type": "Point",
        "coordinates": [
          -108.26001472749896,
          -0.08332750932688036
        ]
      }
    }
  ]
}